NORAD_CAT_ID,OBJECT_NAME,OBJECT_TYPE,EPOCH,MEAN_MOTION,ECCENTRICITY,INCLINATION,RA_OF_ASC_NODE,ARG_OF_PERICENTER,MEAN_ANOMALY,BSTAR,MEAN_MOTION_DOT,MEAN_MOTION_DDOT,TLE_LINE0,TLE_LINE1,TLE_LINE2,SEMIMAJOR_AXIS,PERIOD,APOGEE,PERIGEE,DECAYED
55429.0,STARLINK-5645,PAYLOAD,2024-07-25 05:21:11,14.98341493,0.0003231,69.9993,138.3885,266.9228,93.1562,0.00025085,2.902e-05,0.0,0 STARLINK-5645,1 55429U 23014AQ  24207.22304561  .00002902  00000-0  25085-3 0  9999,2 55429  69.9993 138.3885 0003231 266.9228  93.1562 14.98341493 81878,6950.157,96.106,574.268,569.777,0.0
55429.0,STARLINK-5645,PAYLOAD,2024-07-26 03:47:05,14.98324146,0.0002304,70.0018,136.0339,258.4245,101.6656,0.00013753,1.548e-05,0.0,0 STARLINK-5645,1 55429U 23014AQ  24208.15769922  .00001548  00000-0  13753-3 0  9992,2 55429  70.0018 136.0339 0002304 258.4245 101.6656 14.98324146 82015,6950.211,96.107,573.677,570.475,0.0
55429.0,STARLINK-5645,PAYLOAD,2024-07-26 05:23:13,14.98324418,0.0002292,70.0018,135.8658,257.7587,102.3316,0.00013472,1.515e-05,0.0,0 STARLINK-5645,1 55429U 23014AQ  24208.22445921  .00001515  00000-0  13472-3 0  9992,2 55429  70.0018 135.8658 0002292 257.7587 102.3316 14.98324418 82960,6950.21,96.107,573.668,570.482,0.0
55429.0,STARLINK-5645,PAYLOAD,2024-07-26 18:12:17,14.98341569,0.0002711,70.0006,134.5167,270.6054,89.4794,-7.4051e-05,-9.77e-06,0.0,0 STARLINK-5645,1 55429U 23014AQ  24208.75853358 -.00000977  00000-0 -74051-4 0  9991,2 55429  70.0006 134.5167 0002711 270.6054  89.4794 14.98341569 82104,6950.157,96.106,573.906,570.138,0.0
55429.0,STARLINK-5645,PAYLOAD,2024-07-27 05:25:13,14.98346288,0.0002664,70.0008,133.3385,270.9031,89.1823,-2.006e-05,-3.32e-06,0.0,0 STARLINK-5645,1 55429U 23014AQ  24209.22584549 -.00000332  00000-0 -20060-4 0  9993,2 55429  70.0008 133.3385 0002664 270.9031  89.1823 14.98346288 83115,6950.143,96.106,573.859,570.156,0.0
55429.0,STARLINK-5645,PAYLOAD,2024-07-27 21:26:35,14.98322041,0.0002826,70.0008,131.6556,268.4464,91.6371,-7.7624e-05,-1.019e-05,0.0,0 STARLINK-5645,1 55429U 23014AQ  24209.89346185 -.00001019  00000-0 -77624-4 0  9999,2 55429  70.0008 131.6556 0002826 268.4464  91.6371 14.98322041 83216,6950.218,96.108,574.047,570.118,0.0
55429.0,STARLINK-5645,PAYLOAD,2024-07-28 03:51:07,14.98324015,0.0002441,70.001,130.9833,252.3575,107.7318,-8.7831e-05,-1.141e-05,0.0,0 STARLINK-5645,1 55429U 23014AQ  24210.16050119 -.00001141  00000-0 -87831-4 0  9997,2 55429  70.0010 130.9833 0002441 252.3575 107.7318 14.98324015 82310,6950.211,96.107,573.773,570.38,0.0
55429.0,STARLINK-5645,PAYLOAD,2024-07-28 21:28:35,14.98328346,0.0002698,70.0001,129.1311,258.6053,101.4803,-6.5795e-05,-8.78e-06,0.0,0 STARLINK-5645,1 55429U 23014AQ  24210.89485993 -.00000878  00000-0 -65795-4 0  9990,2 55429  70.0001 129.1311 0002698 258.6053 101.4803 14.98328346 83362,6950.198,96.107,573.938,570.188,0.0
55429.0,STARLINK-5645,PAYLOAD,2024-07-29 03:53:08,14.98330788,0.0001322,70.0009,128.4575,234.0217,126.0819,-4.973e-05,-6.86e-06,0.0,0 STARLINK-5645,1 55429U 23014AQ  24211.16189926 -.00000686  00000-0 -49730-4 0  9996,2 55429  70.0009 128.4575 0001322 234.0217 126.0819 14.98330788 82460,6950.19,96.107,572.974,571.137,0.0
55429.0,STARLINK-5645,PAYLOAD,2024-07-29 11:53:48,14.9833356,0.0002711,69.9999,127.6165,262.3713,97.7138,-3.1705e-05,-4.71e-06,0.0,0 STARLINK-5645,1 55429U 23014AQ  24211.49569613 -.00000471  00000-0 -31705-4 0  9992,2 55429  69.9999 127.6165 0002711 262.3713  97.7138 14.98333560 83458,6950.182,96.107,573.931,570.163,0.0
55429.0,STARLINK-5645,PAYLOAD,2024-07-29 21:30:36,14.98324209,0.000275,69.9999,126.6063,261.7585,98.3263,9.286e-05,1.015e-05,0.0,0 STARLINK-5645,1 55429U 23014AQ  24211.89626047  .00001015  00000-0  92860-4 0  9993,2 55429  69.9999 126.6063 0002750 261.7585  98.3263 14.98324209 82575,6950.211,96.107,573.987,570.164,0.0
55429.0,STARLINK-5645,PAYLOAD,2024-07-30 03:55:08,14.98329615,0.0002699,70.0001,125.9333,261.7606,98.3247,0.00014921,1.688e-05,0.0,0 STARLINK-5645,1 55429U 23014AQ  24212.16329646  .00001688  00000-0  14921-3 0  9996,2 55429  70.0001 125.9333 0002699 261.7606  98.3247 14.98329615 82613,6950.194,96.107,573.935,570.183,0.0
55429.0,STARLINK-5645,PAYLOAD,2024-07-30 23:08:45,14.98337443,0.0002703,70.0002,123.9138,262.3732,97.7121,0.00012467,1.395e-05,0.0,0 STARLINK-5645,1 55429U 23014AQ  24212.96441153  .00001395  00000-0  12467-3 0  9990,2 55429  70.0002 123.9138 0002703 262.3732  97.7121 14.98337443 83677,6950.17,96.107,573.914,570.156,0.0
55429.0,STARLINK-5645,PAYLOAD,2024-07-31 03:57:08,14.9834315,0.0002678,70.0001,123.4086,261.9652,98.1203,0.00018176,2.077e-05,0.0,0 STARLINK-5645,1 55429U 23014AQ  24213.16468547  .00002077  00000-0  18176-3 0  9990,2 55429  70.0001 123.4086 0002678 261.9652  98.1203 14.98343150 82767,6950.152,96.106,573.878,570.156,0.0
55429.0,STARLINK-5645,PAYLOAD,2024-07-31 11:57:50,14.98330757,0.0002395,69.9999,122.5654,264.5484,95.5402,1.18e-05,4.8e-07,0.0,0 STARLINK-5645,1 55429U 23014AQ  24213.49849700  .00000048  00000-0  11800-4 0  9994,2 55429  69.9999 122.5654 0002395 264.5484  95.5402 14.98330757 82816,6950.191,96.107,573.72,570.391,0.0
55429.0,STARLINK-5645,PAYLOAD,2024-07-31 23:10:46,14.98325975,0.0002647,69.9999,121.3884,264.7053,95.3804,-1.2538e-05,-2.43e-06,0.0,0 STARLINK-5645,1 55429U 23014AQ  24213.96582081 -.00000243  00000-0 -12538-4 0  9990,2 55429  69.9999 121.3884 0002647 264.7053  95.3804 14.98325975 83824,6950.205,96.107,573.91,570.231,0.0
55429.0,STARLINK-5645,PAYLOAD,2024-08-01 03:59:10,14.98329646,0.0002681,70.0,120.8839,263.8643,96.2211,-1.8416e-05,-3.13e-06,0.0,0 STARLINK-5645,1 55429U 23014AQ  24214.16609873 -.00000313  00000-0 -18416-4 0  9991,2 55429  70.0000 120.8839 0002681 263.8643  96.2211 14.98329646 83851,6950.194,96.107,573.922,570.196,0.0
55429.0,STARLINK-5645,PAYLOAD,2024-08-01 21:36:38,14.98344091,0.0002743,69.9997,119.0317,262.4902,97.5945,5.2302e-05,5.31e-06,0.0,0 STARLINK-5645,1 55429U 23014AQ  24214.90044515  .00000531  00000-0  52302-4 0  9991,2 55429  69.9997 119.0317 0002743 262.4902  97.5945 14.98344091 83024,6950.149,96.106,573.921,570.108,0.0
55429.0,STARLINK-5645,PAYLOAD,2024-08-02 10:25:43,14.98336465,0.0002422,69.9997,117.6841,273.5645,86.5237,-5.7614e-05,-7.8e-06,0.0,0 STARLINK-5645,1 55429U 23014AQ  24215.43453105 -.00000780  00000-0 -57614-4 0  9998,2 55429  69.9997 117.6841 0002422 273.5645  86.5237 14.98336465 83108,6950.173,96.107,573.721,570.355,0.0
55429.0,STARLINK-5645,PAYLOAD,2024-08-02 20:02:32,14.98322537,0.0002616,70.0002,116.6759,269.7349,90.351,0.0001038,1.146e-05,0.0,0 STARLINK-5645,1 55429U 23014AQ  24215.83509913  .00001146  00000-0  10380-3 0  9994,2 55429  70.0002 116.6759 0002616 269.7349  90.3510 14.98322537 83166,6950.216,96.107,573.899,570.263,0.0
55429.0,STARLINK-5645,PAYLOAD,2024-08-02 21:38:40,14.98324864,0.0002561,70.0016,116.5073,267.8271,92.2595,4.521e-05,4.46e-06,0.0,0 STARLINK-5645,1 55429U 23014AQ  24215.90185575  .00000446  00000-0  45210-4 0  9999,2 55429  70.0016 116.5073 0002561 267.8271  92.2595 14.98324864 84116,6950.209,96.107,573.854,570.294,0.0
55429.0,STARLINK-5645,PAYLOAD,2024-08-03 04:03:12,14.98330897,0.0002636,70.002,115.8355,263.1321,96.9538,0.00016836,1.916e-05,0.0,0 STARLINK-5645,1 55429U 23014AQ  24216.16889394  .00001916  00000-0  16836-3 0  9992,2 55429  70.0020 115.8355 0002636 263.1321  96.9538 14.98330897 83215,6950.19,96.107,573.887,570.223,0.0
55429.0,STARLINK-5645,PAYLOAD,2024-08-03 10:27:44,14.9833164,0.0002636,70.0021,115.1607,268.5135,91.5722,7.8548e-05,8.44e-06,0.0,0 STARLINK-5645,1 55429U 23014AQ  24216.43593277  .00000844  00000-0  78548-4 0  9992,2 55429  70.0021 115.1607 0002636 268.5135  91.5722 14.98331640 84192,6950.188,96.107,573.885,570.221,0.0
55429.0,STARLINK-5645,PAYLOAD,2024-08-03 23:16:48,14.98334591,0.000255,70.0025,113.8151,258.0499,102.0374,0.00017916,2.046e-05,0.0,0 STARLINK-5645,1 55429U 23014AQ  24216.97001138  .00002046  00000-0  17916-3 0  9998,2 55429  70.0025 113.8151 0002550 258.0499 102.0374 14.98334591 84275,6950.179,96.107,573.816,570.271,0.0
55429.0,STARLINK-5645,PAYLOAD,2024-08-04 10:29:45,14.98337484,0.0003059,70.0008,112.6363,269.2545,90.8263,9.8707e-05,1.085e-05,0.0,0 STARLINK-5645,1 55429U 23014AQ  24217.43732866  .00001085  00000-0  98707-4 0  9999,2 55429  70.0008 112.6363 0003059 269.2545  90.8263 14.98337484 83408,6950.17,96.107,574.161,569.909,0.0
55429.0,STARLINK-5645,PAYLOAD,2024-08-04 23:18:49,14.98341451,0.0002868,70.0013,111.2907,275.0107,85.0725,0.00044221,5.189e-05,0.0,0 STARLINK-5645,1 55429U 23014AQ  24217.97140796  .00005189  00000-0  44221-3 0  9993,2 55429  70.0013 111.2907 0002868 275.0107  85.0725 14.98341451 84420,6950.157,96.106,574.016,570.029,0.0
55429.0,STARLINK-5645,PAYLOAD,2024-08-05 20:08:35,14.98322183,0.0002849,70.001,109.101,268.1475,91.9358,-8.5345e-05,-1.111e-05,0.0,0 STARLINK-5645,1 55429U 23014AQ  24218.83929749 -.00001111  00000-0 -85345-4 0  9998,2 55429  70.0010 109.1010 0002849 268.1475  91.9358 14.98322183 83617,6950.217,96.108,574.062,570.102,0.0
55429.0,STARLINK-5645,PAYLOAD,2024-08-05 23:20:51,14.98325429,0.0003023,70.0002,108.7637,268.2032,91.8781,-0.00011634,-1.481e-05,0.0,0 STARLINK-5645,1 55429U 23014AQ  24218.97281562 -.00001481  00000-0 -11634-3 0  9996,2 55429  70.0002 108.7637 0003023 268.2032  91.8781 14.98325429 84574,6950.207,96.107,574.173,569.971,0.0
55429.0,STARLINK-5645,PAYLOAD,2024-08-06 02:33:07,14.98327943,0.0003013,70.0005,108.4274,268.1502,91.9312,-5.4868e-05,-7.48e-06,0.0,0 STARLINK-5645,1 55429U 23014AQ  24219.10633464 -.00000748  00000-0 -54868-4 0  9996,2 55429  70.0005 108.4274 0003013 268.1502  91.9312 14.98327943 84597,6950.199,96.107,574.158,569.97,0.0
55429.0,STARLINK-5645,PAYLOAD,2024-08-06 20:10:35,14.98332319,0.0002891,70.0005,106.5752,267.6254,92.4574,0.00013859,1.561e-05,0.0,0 STARLINK-5645,1 55429U 23014AQ  24219.84069405  .00001561  00000-0  13859-3 0  9991,2 55429  70.0005 106.5752 0002891 267.6254  92.4574 14.98332319 83765,6950.186,96.107,574.06,570.041,0.0
